HST                     
1 20580U 90037B   26068.15977042  .00009063  00000+0  30023-3 0  9999
2 20580  28.4717  43.6133 0001837 120.9992 239.0785 15.29473555773239
STARLINK-32885          
1 62958U 25029L   26068.71543921  .00016195  00000+0  55770-3 0  9990
2 62958  53.1598 230.0554 0000888  83.3341 276.7760 15.30201455 61354
